[
    {
        "Altitude(m)": 605470.7584346582,
        "Argument of Periapsis(deg)": 0.0,
        "Eccentricity": 0.0,
        "Inclination(deg)": 60.0,
        "Latitude(deg)": 27.988103662572666,
        "Longitude(deg)": -7.737113056902259,
        "Mean Anomaly(deg)": -212.7273,
        "RAAN(deg)": 290.0,
        "Satellite Name": "Test1 1285",
        "Satellite Number": 1285,
        "Semi-Major Axis(m)": 6980739.136638005,
        "Time(s)": 0
    },
    {
        "Altitude(m)": 605395.7969211602,
        "Argument of Periapsis(deg)": 0.00010418945913296404,
        "Eccentricity": 0.0,
        "Inclination(deg)": 60.0,
        "Latitude(deg)": 27.473795055705747,
        "Longitude(deg)": -7.383924307087354,
        "Mean Anomaly(deg)": -212.10719385453817,
        "RAAN(deg)": 289.99957995086027,
        "Satellite Name": "Test1 1285",
        "Satellite Number": 1285,
        "Semi-Major Axis(m)": 6980739.136638005,
        "Time(s)": 10
    }
]